{"type": "FeatureCollection", "features": [ {"type": "Feature", "properties": {"norad_id": 35111, "name": "FENGYUN 1C DEB", "group": "fengyun-1c-debris", "lat": 17.949506950878558, "lon": 51.7627419971416, "alt_km": 866.2621161849056, "timestamp": "2025-12-02T17:49:12.315229+00:00", "meta": {"OBJECT_NAME": "FENGYUN 1C DEB", "OBJECT_ID": "1999-025DKP", "EPOCH": "2025-11-29T11:26:42.602208", "MEAN_MOTION": 14.1093344, "ECCENTRICITY": 0.00213853, "INCLINATION": 99.4668, "RA_OF_ASC_NODE": 51.4224, "ARG_OF_PERICENTER": 257.8852, "MEAN_ANOMALY": 101.9921, "EPHEMERIS_TYPE": 0, "CLASSIFICATION_TYPE": "U", "NORAD_CAT_ID": 35111, "ELEMENT_SET_NO": 999, "REV_AT_EPOCH": 63957, "BSTAR": 0.00042942154, "MEAN_MOTION_DOT": 7.23e-06, "MEAN_MOTION_DDOT": 0}, "tle": {"line1": "1 35111U 99025DKP 25333.47688197  .00000723  00000+0  42942-3 0  9997", "line2": "2 35111  99.4668  51.4224 0021385 257.8852 101.9921 14.10933440639571"}}, "geometry": {"type": "Point", "coordinates": [51.7627419971416, 17.949506950878558]}}, {"type": "Feature", "properties": {"norad_id": 35116, "name": "FENGYUN 1C DEB", "group": "fengyun-1c-debris", "lat": 61.252921909181, "lon": -141.0213176982514, "alt_km": 769.0781533142854, "timestamp": "2025-12-02T17:49:12.315239+00:00", "meta": {"OBJECT_NAME": "FENGYUN 1C DEB", "OBJECT_ID": "1999-025DKU", "EPOCH": "2025-11-29T08:23:15.339840", "MEAN_MOTION": 14.24983182, "ECCENTRICITY": 0.00599996, "INCLINATION": 98.6639, "RA_OF_ASC_NODE": 19.4914, "ARG_OF_PERICENTER": 87.929, "MEAN_ANOMALY": 272.8759, "EPHEMERIS_TYPE": 0, "CLASSIFICATION_TYPE": "U", "NORAD_CAT_ID": 35116, "ELEMENT_SET_NO": 999, "REV_AT_EPOCH": 59769, "BSTAR": 0.0010519384, "MEAN_MOTION_DOT": 2.465e-05, "MEAN_MOTION_DDOT": 0}, "tle": {"line1": "1 35116U 99025DKU 25333.34948310  .00002465  00000+0  10519-2 0  9993", "line2": "2 35116  98.6639  19.4914 0059999  87.9290 272.8759 14.24983182597691"}}, "geometry": {"type": "Point", "coordinates": [-141.0213176982514, 61.252921909181]}}, {"type": "Feature", "properties": {"norad_id": 35121, "name": "FENGYUN 1C DEB", "group": "fengyun-1c-debris", "lat": -52.57534483514803, "lon": -148.16460948860654, "alt_km": 998.9193092360774, "timestamp": "2025-12-02T17:49:12.315249+00:00", "meta": {"OBJECT_NAME": "FENGYUN 1C DEB", "OBJECT_ID": "1999-025DKZ", "EPOCH": "2025-11-23T20:23:41.984736", "MEAN_MOTION": 14.04733583, "ECCENTRICITY": 0.0157971, "INCLINATION": 98.3025, "RA_OF_ASC_NODE": 192.694, "ARG_OF_PERICENTER": 150.2058, "MEAN_ANOMALY": 210.8223, "EPHEMERIS_TYPE": 0, "CLASSIFICATION_TYPE": "U", "NORAD_CAT_ID": 35121, "ELEMENT_SET_NO": 999, "REV_AT_EPOCH": 60826, "BSTAR": 0.00039097454, "MEAN_MOTION_DOT": 6.63e-06, "MEAN_MOTION_DDOT": 0}, "tle": {"line1": "1 35121U 99025DKZ 25327.84979149  .00000663  00000+0  39097-3 0  9992", "line2": "2 35121  98.3025 192.6940 0157971 150.2058 210.8223 14.04733583608261"}}, "geometry": {"type": "Point", "coordinates": [-148.16460948860654, -52.57534483514803]}}, {"type": "Feature", "properties": {"norad_id": 35122, "name": "FENGYUN 1C DEB", "group": "fengyun-1c-debris", "lat": -69.39341218305883, "lon": 151.5015528583733, "alt_km": 845.0484266842996, "timestamp": "2025-12-02T17:49:12.315260+00:00", "meta": {"OBJECT_NAME": "FENGYUN 1C DEB", "OBJECT_ID": "1999-025DLA", "EPOCH": "2025-12-02T08:08:45.964032", "MEAN_MOTION": 14.14105652, "ECCENTRICITY": 0.0024842, "INCLINATION": 98.6728, "RA_OF_ASC_NODE": 355.0598, "ARG_OF_PERICENTER": 187.1016, "MEAN_ANOMALY": 172.9809, "EPHEMERIS_TYPE": 0, "CLASSIFICATION_TYPE": "U", "NORAD_CAT_ID": 35122, "ELEMENT_SET_NO": 999, "REV_AT_EPOCH": 63720, "BSTAR": 0.00038355, "MEAN_MOTION_DOT": 6.9e-06, "MEAN_MOTION_DDOT": 0}, "tle": {"line1": "1 35122U 99025DLA 25336.33942088  .00000690  00000+0  38355-3 0  9995", "line2": "2 35122  98.6728 355.0598 0024842 187.1016 172.9809 14.14105652637207"}}, "geometry": {"type": "Point", "coordinates": [151.5015528583733, -69.39341218305883]}}, {"type": "Feature", "properties": {"norad_id": 35123, "name": "FENGYUN 1C DEB", "group": "fengyun-1c-debris", "lat": 41.86513035409441, "lon": 150.76678919910373, "alt_km": 790.8934674073316, "timestamp": "2025-12-02T17:49:12.315269+00:00", "meta": {"OBJECT_NAME": "FENGYUN 1C DEB", "OBJECT_ID": "1999-025DLB", "EPOCH": "2025-12-01T23:04:25.814496", "MEAN_MOTION": 14.24171122, "ECCENTRICITY": 0.00496834, "INCLINATION": 99.1234, "RA_OF_ASC_NODE": 158.2362, "ARG_OF_PERICENTER": 106.8047, "MEAN_ANOMALY": 253.8589, "EPHEMERIS_TYPE": 0, "CLASSIFICATION_TYPE": "U", "NORAD_CAT_ID": 35123, "ELEMENT_SET_NO": 999, "REV_AT_EPOCH": 60920, "BSTAR": 0.00063028249, "MEAN_MOTION_DOT": 1.423e-05, "MEAN_MOTION_DDOT": 0}, "tle": {"line1": "1 35123U 99025DLB 25335.96140989  .00001423  00000+0  63028-3 0  9994", "line2": "2 35123  99.1234 158.2362 0049683 106.8047 253.8589 14.24171122609209"}}, "geometry": {"type": "Point", "coordinates": [150.76678919910373, 41.86513035409441]}}, {"type": "Feature", "properties": {"norad_id": 35125, "name": "FENGYUN 1C DEB", "group": "fengyun-1c-debris", "lat": 11.889347600983541, "lon": 170.04320257374707, "alt_km": 817.5150465771922, "timestamp": "2025-12-02T17:49:12.315279+00:00", "meta": {"OBJECT_NAME": "FENGYUN 1C DEB", "OBJECT_ID": "1999-025DLD", "EPOCH": "2025-11-30T18:06:54.020160", "MEAN_MOTION": 14.32992983, "ECCENTRICITY": 0.00524138, "INCLINATION": 98.2175, "RA_OF_ASC_NODE": 346.4138, "ARG_OF_PERICENTER": 330.9123, "MEAN_ANOMALY": 28.9145, "EPHEMERIS_TYPE": 0, "CLASSIFICATION_TYPE": "U", "NORAD_CAT_ID": 35125, "ELEMENT_SET_NO": 999, "REV_AT_EPOCH": 31110, "BSTAR": 0.0013623898, "MEAN_MOTION_DOT": 3.746e-05, "MEAN_MOTION_DDOT": 0}, "tle": {"line1": "1 35125U 99025DLD 25334.75479190  .00003746  00000+0  13624-2 0  9997", "line2": "2 35125  98.2175 346.4138 0052413 330.9123  28.9145 14.32992983311100"}}, "geometry": {"type": "Point", "coordinates": [170.04320257374707, 11.889347600983541]}}, {"type": "Feature", "properties": {"norad_id": 35130, "name": "FENGYUN 1C DEB", "group": "fengyun-1c-debris", "lat": -43.08164149635508, "lon": -171.69545989847146, "alt_km": 583.4064649109896, "timestamp": "2025-12-02T17:49:12.315289+00:00", "meta": {"OBJECT_NAME": "FENGYUN 1C DEB", "OBJECT_ID": "1999-025DLJ", "EPOCH": "2025-11-16T07:10:32.424096", "MEAN_MOTION": 14.93874873, "ECCENTRICITY": 0.00078551, "INCLINATION": 99.035, "RA_OF_ASC_NODE": 160.7946, "ARG_OF_PERICENTER": 199.1372, "MEAN_ANOMALY": 160.955, "EPHEMERIS_TYPE": 0, "CLASSIFICATION_TYPE": "U", "NORAD_CAT_ID": 35130, "ELEMENT_SET_NO": 999, "REV_AT_EPOCH": 64518, "BSTAR": 0.012697589, "MEAN_MOTION_DOT": 0.00137587, "MEAN_MOTION_DDOT": 0}, "tle": {"line1": "1 35130U 99025DLJ 25320.29898639  .00137587  00000+0  12698-1 0  9990", "line2": "2 35130  99.0350 160.7946 0007855 199.1372 160.9550 14.93874873645184"}}, "geometry": {"type": "Point", "coordinates": [-171.69545989847146, -43.08164149635508]}}, {"type": "Feature", "properties": {"norad_id": 35135, "name": "FENGYUN 1C DEB", "group": "fengyun-1c-debris", "lat": -80.7818346539203, "lon": 97.60406410399466, "alt_km": 784.2576709105269, "timestamp": "2025-12-02T17:49:12.315300+00:00", "meta": {"OBJECT_NAME": "FENGYUN 1C DEB", "OBJECT_ID": "1999-025DLP", "EPOCH": "2025-12-01T06:48:06.645600", "MEAN_MOTION": 14.22496279, "ECCENTRICITY": 0.0081298, "INCLINATION": 98.5651, "RA_OF_ASC_NODE": 344.4097, "ARG_OF_PERICENTER": 318.0472, "MEAN_ANOMALY": 41.4496, "EPHEMERIS_TYPE": 0, "CLASSIFICATION_TYPE": "U", "NORAD_CAT_ID": 35135, "ELEMENT_SET_NO": 999, "REV_AT_EPOCH": 87661, "BSTAR": 0.00057484, "MEAN_MOTION_DOT": 1.283e-05, "MEAN_MOTION_DDOT": 0}, "tle": {"line1": "1 35135U 99025DLP 25335.28341025  .00001283  00000+0  57484-3 0  9999", "line2": "2 35135  98.5651 344.4097 0081298 318.0472  41.4496 14.22496279876619"}}, "geometry": {"type": "Point", "coordinates": [97.60406410399466, -80.7818346539203]}}, {"type": "Feature", "properties": {"norad_id": 35139, "name": "FENGYUN 1C DEB", "group": "fengyun-1c-debris", "lat": 52.11347353912058, "lon": -28.94876804985124, "alt_km": 813.1443891919025, "timestamp": "2025-12-02T17:49:12.315310+00:00", "meta": {"OBJECT_NAME": "FENGYUN 1C DEB", "OBJECT_ID": "1999-025DLT", "EPOCH": "2025-11-29T06:46:18.583392", "MEAN_MOTION": 14.21054019, "ECCENTRICITY": 0.00685814, "INCLINATION": 98.5841, "RA_OF_ASC_NODE": 338.8823, "ARG_OF_PERICENTER": 336.9878, "MEAN_ANOMALY": 22.8231, "EPHEMERIS_TYPE": 0, "CLASSIFICATION_TYPE": "U", "NORAD_CAT_ID": 35139, "ELEMENT_SET_NO": 999, "REV_AT_EPOCH": 63962, "BSTAR": 0.00042081079, "MEAN_MOTION_DOT": 8.92e-06, "MEAN_MOTION_DDOT": 0}, "tle": {"line1": "1 35139U 99025DLT 25333.28215953  .00000892  00000+0  42081-3 0  9993", "line2": "2 35139  98.5841 338.8823 0068581 336.9878  22.8231 14.21054019639626"}}, "geometry": {"type": "Point", "coordinates": [-28.94876804985124, 52.11347353912058]}}, {"type": "Feature", "properties": {"norad_id": 35140, "name": "FENGYUN 1C DEB", "group": "fengyun-1c-debris", "lat": 46.13888571283737, "lon": 147.43174693129575, "alt_km": 968.1570501165988, "timestamp": "2025-12-02T17:49:12.315319+00:00", "meta": {"OBJECT_NAME": "FENGYUN 1C DEB", "OBJECT_ID": "1999-025DLU", "EPOCH": "2025-12-02T05:22:44.978016", "MEAN_MOTION": 14.21316954, "ECCENTRICITY": 0.0291407, "INCLINATION": 98.446, "RA_OF_ASC_NODE": 318.0409, "ARG_OF_PERICENTER": 357.3443, "MEAN_ANOMALY": 2.6174, "EPHEMERIS_TYPE": 0, "CLASSIFICATION_TYPE": "U", "NORAD_CAT_ID": 35140, "ELEMENT_SET_NO": 999, "REV_AT_EPOCH": 87129, "BSTAR": 0.00035193, "MEAN_MOTION_DOT": 1.131e-05, "MEAN_MOTION_DDOT": 0}, "tle": {"line1": "1 35140U 99025DLU 25336.22413169  .00001131  00000+0  35193-3 0  9994", "line2": "2 35140  98.4460 318.0409 0291407 357.3443   2.6174 14.21316954871296"}}, "geometry": {"type": "Point", "coordinates": [147.43174693129575, 46.13888571283737]}}]}